CTC2_L_00320016-03
1 65597U 26539KH  26070.40846065  .00000000  00000+0  00000-0 0  9994
2 65597  75.0000 180.0000 0000000   0.0000   0.0000 13.69880518    15
CTC2_L_00320016-04
1 65598U 23662SX  26070.40846065  .00000000  00000+0  00000-0 0  9999
2 65598  75.0000 180.0000 0000000   0.0000  90.0000 13.69880518    15
CTC2_L_00320017-01
1 65599U 23099ZW  26070.40846065  .00000000  00000+0  00000-0 0  9994
2 65599  75.0000 192.0000 0000000   0.0000 192.0000 13.69880518    12
CTC2_L_00320017-02
1 65600U 24583VR  26070.40846065  .00000000  00000+0  00000-0 0  9996
2 65600  75.0000 192.0000 0000000   0.0000 282.0000 13.69880518    15
CTC2_L_00320017-03
1 65601U 24325LU  26070.40846065  .00000000  00000+0  00000-0 0  9991
2 65601  75.0000 192.0000 0000000   0.0000  12.0000 13.69880518    17
CTC2_L_00320017-04
1 65602U 25231OO  26070.40846065  .00000000  00000+0  00000-0 0  9999
2 65602  75.0000 192.0000 0000000   0.0000 102.0000 13.69880518    18
CTC2_L_00320018-01
1 65603U 23107BL  26070.40846065  .00000000  00000+0  00000-0 0  9990
2 65603  75.0000 204.0000 0000000   0.0000 204.0000 13.69880518    16
CTC2_L_00320018-02
1 65604U 25117ZL  26070.40846065  .00000000  00000+0  00000-0 0  9994
2 65604  75.0000 204.0000 0000000   0.0000 294.0000 13.69880518    16
CTC2_L_00320018-03
1 65605U 26590FF  26070.40846065  .00000000  00000+0  00000-0 0  9991
2 65605  75.0000 204.0000 0000000   0.0000  24.0000 13.69880518    18
CTC2_L_00320018-04
1 65606U 23936AE  26070.40846065  .00000000  00000+0  00000-0 0  9993
2 65606  75.0000 204.0000 0000000   0.0000 114.0000 13.69880518    19
CTC2_L_00320019-01
1 65607U 23727CA  26070.40846065  .00000000  00000+0  00000-0 0  9992
2 65607  75.0000 216.0000 0000000   0.0000 216.0000 13.69880518    16
CTC2_L_00320019-02
1 65608U 22156PD  26070.40846065  .00000000  00000+0  00000-0 0  9998
2 65608  75.0000 216.0000 0000000   0.0000 306.0000 13.69880518    17
CTC2_L_00320019-03
1 65609U 25323OM  26070.40846065  .00000000  00000+0  00000-0 0  9998
2 65609  75.0000 216.0000 0000000   0.0000  36.0000 13.69880518    18
CTC2_L_00320019-04
1 65610U 26171LV  26070.40846065  .00000000  00000+0  00000-0 0  9992
2 65610  75.0000 216.0000 0000000   0.0000 126.0000 13.69880518    10
CTC2_L_00320020-01
1 65611U 25462FN  26070.40846065  .00000000  00000+0  00000-0 0  9995
2 65611  75.0000 228.0000 0000000   0.0000 228.0000 13.69880518    17
CTC2_L_00320020-02
1 65612U 22902CP  26070.40846065  .00000000  00000+0  00000-0 0  9992
2 65612  75.0000 228.0000 0000000   0.0000 318.0000 13.69880518    18
CTC2_L_00320020-03
1 65613U 26505AN  26070.40846065  .00000000  00000+0  00000-0 0  9996
2 65613  75.0000 228.0000 0000000   0.0000  48.0000 13.69880518    19
CTC2_L_00320020-04
1 65614U 24455PM  26070.40846065  .00000000  00000+0  00000-0 0  9999
2 65614  75.0000 228.0000 0000000   0.0000 138.0000 13.69880518    10
CTC2_L_00320021-01
1 65615U 23290QT  26070.40846065  .00000000  00000+0  00000-0 0  9996
2 65615  75.0000 240.0000 0000000   0.0000 240.0000 13.69880518    19
CTC2_L_00320021-02
1 65616U 22450DY  26070.40846065  .00000000  00000+0  00000-0 0  9994
2 65616  75.0000 240.0000 0000000   0.0000 330.0000 13.69880518    10
CTC2_L_00320021-03
1 65617U 25016OB  26070.40846065  .00000000  00000+0  00000-0 0  9996
2 65617  75.0000 240.0000 0000000   0.0000  60.0000 13.69880518    11
CTC2_L_00320021-04
1 65618U 22986LI  26070.40846065  .00000000  00000+0  00000-0 0  9990
2 65618  75.0000 240.0000 0000000   0.0000 150.0000 13.69880518    12
CTC2_L_00320022-01
1 65619U 26472FZ  26070.40846065  .00000000  00000+0  00000-0 0  9995
2 65619  75.0000 252.0000 0000000   0.0000 252.0000 13.69880518    19
CTC2_L_00320022-02
1 65620U 24803JI  26070.40846065  .00000000  00000+0  00000-0 0  9993
2 65620  75.0000 252.0000 0000000   0.0000 342.0000 13.69880518    11
CTC2_L_00320022-03
1 65621U 23474QP  26070.40846065  .00000000  00000+0  00000-0 0  9997
2 65621  75.0000 252.0000 0000000   0.0000  72.0000 13.69880518    12
CTC2_L_00320022-04
1 65622U 23067GQ  26070.40846065  .00000000  00000+0  00000-0 0  9996
2 65622  75.0000 252.0000 0000000   0.0000 162.0000 13.69880518    13
CTC2_L_00320023-01
1 65623U 22956CB  26070.40846065  .00000000  00000+0  00000-0 0  9993
2 65623  75.0000 264.0000 0000000   0.0000 264.0000 13.69880518    10
CTC2_L_00320023-02
1 65624U 22377HL  26070.40846065  .00000000  00000+0  00000-0 0  9991
2 65624  75.0000 264.0000 0000000   0.0000 354.0000 13.69880518    11
CTC2_L_00320023-03
1 65625U 25985JU  26070.40846065  .00000000  00000+0  00000-0 0  9990
2 65625  75.0000 264.0000 0000000   0.0000  84.0000 13.69880518    12
CTC2_L_00320023-04
1 65626U 24959EY  26070.40846065  .00000000  00000+0  00000-0 0  9991
2 65626  75.0000 264.0000 0000000   0.0000 174.0000 13.69880518    13
CTC2_L_00320024-01
1 65627U 24879RF  26070.40846065  .00000000  00000+0  00000-0 0  9993
2 65627  75.0000 276.0000 0000000   0.0000 276.0000 13.69880518    10
CTC2_L_00320024-02
1 65628U 25554TC  26070.40846065  .00000000  00000+0  00000-0 0  9995
2 65628  75.0000 276.0000 0000000   0.0000   6.0000 13.69880518    12
CTC2_L_00320024-03
1 65629U 26629OR  26070.40846065  .00000000  00000+0  00000-0 0  9990
2 65629  75.0000 276.0000 0000000   0.0000  96.0000 13.69880518    12
CTC2_L_00320024-04
1 65630U 24542F   26070.40846065  .00000000  00000+0  00000-0 0  9994
2 65630  75.0000 276.0000 0000000   0.0000 186.0000 13.69880518    14
CTC2_L_00320025-01
1 65631U 26609HW  26070.40846065  .00000000  00000+0  00000-0 0  9991
2 65631  75.0000 288.0000 0000000   0.0000 288.0000 13.69880518    11
CTC2_L_00320025-02
1 65632U 22645YO  26070.40846065  .00000000  00000+0  00000-0 0  9998
2 65632  75.0000 288.0000 0000000   0.0000  18.0000 13.69880518    13
CTC2_L_00320025-03
1 65633U 22440CA  26070.40846065  .00000000  00000+0  00000-0 0  9992
2 65633  75.0000 288.0000 0000000   0.0000 108.0000 13.69880518    14
CTC2_L_00320025-04
1 65634U 26711BA  26070.40846065  .00000000  00000+0  00000-0 0  9998
2 65634  75.0000 288.0000 0000000   0.0000 198.0000 13.69880518    14
CTC2_L_00320026-01
1 65635U 25531HP  26070.40846065  .00000000  00000+0  00000-0 0  9998
2 65635  75.0000 300.0000 0000000   0.0000 300.0000 13.69880518    15
CTC2_L_00320026-02
1 65636U 26536NU  26070.40846065  .00000000  00000+0  00000-0 0  9995
2 65636  75.0000 300.0000 0000000   0.0000  30.0000 13.69880518    16
CTC2_L_00320026-03
1 65637U 22694KX  26070.40846065  .00000000  00000+0  00000-0 0  9997
2 65637  75.0000 300.0000 0000000   0.0000 120.0000 13.69880518    17
CTC2_L_00320026-04
1 65638U 25611SQ  26070.40846065  .00000000  00000+0  00000-0 0  9990
2 65638  75.0000 300.0000 0000000   0.0000 210.0000 13.69880518    18
CTC2_L_00320027-01
1 65639U 25895UG  26070.40846065  .00000000  00000+0  00000-0 0  9995
2 65639  75.0000 312.0000 0000000   0.0000 312.0000 13.69880518    15
CTC2_L_00320027-02
1 65640U 25739RZ  26070.40846065  .00000000  00000+0  00000-0 0  9994
2 65640  75.0000 312.0000 0000000   0.0000  42.0000 13.69880518    17
CTC2_L_00320027-03
1 65641U 26303OX  26070.40846065  .00000000  00000+0  00000-0 0  9993
2 65641  75.0000 312.0000 0000000   0.0000 132.0000 13.69880518    18
CTC2_L_00320027-04
1 65642U 24860WZ  26070.40846065  .00000000  00000+0  00000-0 0  9990
2 65642  75.0000 312.0000 0000000   0.0000 222.0000 13.69880518    19
CTC2_L_00320028-01
1 65643U 25597EJ  26070.40846065  .00000000  00000+0  00000-0 0  9999
2 65643  75.0000 324.0000 0000000   0.0000 324.0000 13.69880518    16
CTC2_L_00320028-02
1 65644U 25518AX  26070.40846065  .00000000  00000+0  00000-0 0  9993
2 65644  75.0000 324.0000 0000000   0.0000  54.0000 13.69880518    17
CTC2_L_00320028-03
1 65645U 24414RY  26070.40846065  .00000000  00000+0  00000-0 0  9998
2 65645  75.0000 324.0000 0000000   0.0000 144.0000 13.69880518    18
CTC2_L_00320028-04
1 65646U 24716IS  26070.40846065  .00000000  00000+0  00000-0 0  9994
2 65646  75.0000 324.0000 0000000   0.0000 234.0000 13.69880518    19
CTC2_L_00320029-01
1 65647U 23701XV  26070.40846065  .00000000  00000+0  00000-0 0  9998
2 65647  75.0000 336.0000 0000000   0.0000 336.0000 13.69880518    16
CTC2_L_00320029-02
1 65648U 22744WO  26070.40846065  .00000000  00000+0  00000-0 0  9995
2 65648  75.0000 336.0000 0000000   0.0000  66.0000 13.69880518    17
CTC2_L_00320029-03
1 65649U 23763LB  26070.40846065  .00000000  00000+0  00000-0 0  9998
2 65649  75.0000 336.0000 0000000   0.0000 156.0000 13.69880518    18
CTC2_L_00320029-04
1 65650U 23791U   26070.40846065  .00000000  00000+0  00000-0 0  9991
2 65650  75.0000 336.0000 0000000   0.0000 246.0000 13.69880518    10
CTC2_L_00320030-01
1 65651U 25811IH  26070.40846065  .00000000  00000+0  00000-0 0  9997
2 65651  75.0000 348.0000 0000000   0.0000 348.0000 13.69880518    17
CTC2_L_00320030-02
1 65652U 25812MI  26070.40846065  .00000000  00000+0  00000-0 0  9999
2 65652  75.0000 348.0000 0000000   0.0000  78.0000 13.69880518    18
CTC2_L_00320030-03
1 65653U 26706US  26070.40846065  .00000000  00000+0  00000-0 0  9993
2 65653  75.0000 348.0000 0000000   0.0000 168.0000 13.69880518    19
CTC2_L_00320030-04
1 65654U 24031CG  26070.40846065  .00000000  00000+0  00000-0 0  9993
2 65654  75.0000 348.0000 0000000   0.0000 258.0000 13.69880518    10
